HULIANWANG JISHU SHIYAN*
1 57288U 23095A   26195.14707256  .00000021  00000+0  10914-4 0  9995
2 57288  86.5043 355.4411 0019443 113.8103 246.5080 13.39544290147365
HULIANWANG JISHU SHIYAN*
1 57289U 23095B   26195.21327015  .00000022  00000+0  11249-4 0  9998
2 57289  86.5044 355.4276 0018042 111.6849 248.6217 13.39552953147374
HULIANWANG JISHU SHIYAN*
1 58691U 23212A   26195.19542169 -.00000089  00000+0  69694-4 0  9994
2 58691  49.9991 244.7926 0001237 215.6277 144.4518 13.41458934124870
HULIANWANG JISHU SHIYAN*
1 58692U 23212B   26195.18871182 -.00000093  00000+0  63135-4 0  9993
2 58692  49.9960 245.1749 0001403 205.5728 154.5080 13.41460088124878
HULIANWANG JISHU SHIYAN*
1 58693U 23212C   26195.19195867 -.00000087  00000+0  74110-4 0  9992
2 58693  49.9974 245.2899 0001254 194.5302 165.5539 13.41461903124889
HULIANWANG DIGUI-01     
1 62323U 24240A   26195.19568449  .00000023  00000+0  20398-4 0  9997
2 62323  86.5018 334.1259 0001948 105.5269 254.6080 13.24411551 76211
HULIANWANG DIGUI-02     
1 62324U 24240B   26195.20314492  .00000005  00000+0 -21828-4 0  9997
2 62324  86.5047 334.2901 0001915 105.7248 254.4097 13.24411482 76222
HULIANWANG DIGUI-03     
1 62325U 24240C   26195.18810876  .00000033  00000+0  41597-4 0  9997
2 62325  86.5000 334.0259 0001992 103.9024 256.2332 13.24410115 76216
HULIANWANG DIGUI-04     
1 62326U 24240D   26195.18057168  .00000034  00000+0  44754-4 0  9994
2 62326  86.5010 334.0718 0002114 104.0961 256.0408 13.24410378 76210
HULIANWANG DIGUI-05     
1 62327U 24240E   26195.17301944  .00000031  00000+0  38440-4 0  9990
2 62327  86.5062 334.3597 0002170 102.0556 258.0822 13.24411015 76217
HULIANWANG DIGUI-06     
1 62328U 24240F   26195.15790782  .00000009  00000+0 -12441-4 0  9990
2 62328  86.4999 334.0050 0002085 108.5868 251.5493 13.24408512 76219
HULIANWANG DIGUI-07     
1 62329U 24240G   26195.15034083  .00000002  00000+0 -29786-4 0  9999
2 62329  86.4970 333.8385 0001996 106.0986 254.0368 13.24410991 76214
HULIANWANG DIGUI-08     
1 62330U 24240H   26195.16546256  .00000023  00000+0  19002-4 0  9994
2 62330  86.5053 334.3089 0002233 102.1480 257.9904 13.24411293 76211
HULIANWANG DIGUI-09     
1 62331U 24240J   26195.14278800 -.00000013  00000+0 -63617-4 0  9992
2 62331  86.5019 334.1687 0001968 104.0193 256.1160 13.24409943 76205
HULIANWANG DIGUI-10     
1 62332U 24240K   26195.13523828 -.00000002  00000+0 -39688-4 0  9994
2 62332  86.5050 334.3320 0002042 106.9943 253.1415 13.24410765 76209
HULIANWANG DIGUI-11     
1 62971U 25030A   26195.14966111 -.00000120  00000+0  95216-5 0  9998
2 62971  49.9998 139.1136 0001010 269.9619  90.1137 13.29324394 69447
