{"fetched_at":"2026-07-14T17:40:48.257Z","source":"https://celestrak.org/NORAD/elements/gp.php?NAME=HULIANWANG&FORMAT=JSON","constellation":"guowang","records":[{"OBJECT_NAME":"HULIANWANG JISHU SHIYAN A","OBJECT_ID":"2023-095A","EPOCH":"2026-07-14T03:31:47.069184","CLASSIFICATION_TYPE":"U","MEAN_MOTION":13.3954429,"ECCENTRICITY":0.0019443,"INCLINATION":86.5043,"RA_OF_ASC_NODE":355.4411,"ARG_OF_PERICENTER":113.8103,"MEAN_ANOMALY":246.508,"EPHEMERIS_TYPE":0,"NORAD_CAT_ID":57288,"ELEMENT_SET_NO":999,"REV_AT_EPOCH":14736,"BSTAR":0.000010914,"MEAN_MOTION_DOT":2.1e-7,"MEAN_MOTION_DDOT":0},{"OBJECT_NAME":"HULIANWANG JISHU SHIYAN B","OBJECT_ID":"2023-095B","EPOCH":"2026-07-14T05:07:06.540960","CLASSIFICATION_TYPE":"U","MEAN_MOTION":13.39552953,"ECCENTRICITY":0.0018042,"INCLINATION":86.5044,"RA_OF_ASC_NODE":355.4276,"ARG_OF_PERICENTER":111.6849,"MEAN_ANOMALY":248.6217,"EPHEMERIS_TYPE":0,"NORAD_CAT_ID":57289,"ELEMENT_SET_NO":999,"REV_AT_EPOCH":14737,"BSTAR":0.000011249,"MEAN_MOTION_DOT":2.2e-7,"MEAN_MOTION_DDOT":0},{"OBJECT_NAME":"HULIANWANG JISHU SHIYAN 4A","OBJECT_ID":"2023-212A","EPOCH":"2026-07-14T04:41:24.434016","CLASSIFICATION_TYPE":"U","MEAN_MOTION":13.41458934,"ECCENTRICITY":0.0001237,"INCLINATION":49.9991,"RA_OF_ASC_NODE":244.7926,"ARG_OF_PERICENTER":215.6277,"MEAN_ANOMALY":144.4518,"EPHEMERIS_TYPE":0,"NORAD_CAT_ID":58691,"ELEMENT_SET_NO":999,"REV_AT_EPOCH":12487,"BSTAR":0.000069694,"MEAN_MOTION_DOT":-8.9e-7,"MEAN_MOTION_DDOT":0},{"OBJECT_NAME":"HULIANWANG JISHU SHIYAN 4B","OBJECT_ID":"2023-212B","EPOCH":"2026-07-14T04:31:44.701248","CLASSIFICATION_TYPE":"U","MEAN_MOTION":13.41460088,"ECCENTRICITY":0.0001403,"INCLINATION":49.996,"RA_OF_ASC_NODE":245.1749,"ARG_OF_PERICENTER":205.5728,"MEAN_ANOMALY":154.508,"EPHEMERIS_TYPE":0,"NORAD_CAT_ID":58692,"ELEMENT_SET_NO":999,"REV_AT_EPOCH":12487,"BSTAR":0.000063135,"MEAN_MOTION_DOT":-9.3e-7,"MEAN_MOTION_DDOT":0},{"OBJECT_NAME":"HULIANWANG JISHU SHIYAN 4C","OBJECT_ID":"2023-212C","EPOCH":"2026-07-14T04:36:25.229088","CLASSIFICATION_TYPE":"U","MEAN_MOTION":13.41461903,"ECCENTRICITY":0.0001254,"INCLINATION":49.9974,"RA_OF_ASC_NODE":245.2899,"ARG_OF_PERICENTER":194.5302,"MEAN_ANOMALY":165.5539,"EPHEMERIS_TYPE":0,"NORAD_CAT_ID":58693,"ELEMENT_SET_NO":999,"REV_AT_EPOCH":12488,"BSTAR":0.00007411,"MEAN_MOTION_DOT":-8.7e-7,"MEAN_MOTION_DDOT":0},{"OBJECT_NAME":"HULIANWANG DIGUI-01","OBJECT_ID":"2024-240A","EPOCH":"2026-07-14T04:41:47.139936","CLASSIFICATION_TYPE":"U","MEAN_MOTION":13.24411551,"ECCENTRICITY":0.0001948,"INCLINATION":86.5018,"RA_OF_ASC_NODE":334.1259,"ARG_OF_PERICENTER":105.5269,"MEAN_ANOMALY":254.608,"EPHEMERIS_TYPE":0,"NORAD_CAT_ID":62323,"ELEMENT_SET_NO":999,"REV_AT_EPOCH":7621,"BSTAR":0.000020398,"MEAN_MOTION_DOT":2.3e-7,"MEAN_MOTION_DDOT":0},{"OBJECT_NAME":"HULIANWANG DIGUI-02","OBJECT_ID":"2024-240B","EPOCH":"2026-07-14T04:52:31.721088","CLASSIFICATION_TYPE":"U","MEAN_MOTION":13.24411482,"ECCENTRICITY":0.0001915,"INCLINATION":86.5047,"RA_OF_ASC_NODE":334.2901,"ARG_OF_PERICENTER":105.7248,"MEAN_ANOMALY":254.4097,"EPHEMERIS_TYPE":0,"NORAD_CAT_ID":62324,"ELEMENT_SET_NO":999,"REV_AT_EPOCH":7622,"BSTAR":-0.000021828,"MEAN_MOTION_DOT":5e-8,"MEAN_MOTION_DDOT":0},{"OBJECT_NAME":"HULIANWANG DIGUI-03","OBJECT_ID":"2024-240C","EPOCH":"2026-07-14T04:30:52.596864","CLASSIFICATION_TYPE":"U","MEAN_MOTION":13.24410115,"ECCENTRICITY":0.0001992,"INCLINATION":86.5,"RA_OF_ASC_NODE":334.0259,"ARG_OF_PERICENTER":103.9024,"MEAN_ANOMALY":256.2332,"EPHEMERIS_TYPE":0,"NORAD_CAT_ID":62325,"ELEMENT_SET_NO":999,"REV_AT_EPOCH":7621,"BSTAR":0.000041597,"MEAN_MOTION_DOT":3.3e-7,"MEAN_MOTION_DDOT":0},{"OBJECT_NAME":"HULIANWANG DIGUI-04","OBJECT_ID":"2024-240D","EPOCH":"2026-07-14T04:20:01.393152","CLASSIFICATION_TYPE":"U","MEAN_MOTION":13.24410378,"ECCENTRICITY":0.0002114,"INCLINATION":86.501,"RA_OF_ASC_NODE":334.0718,"ARG_OF_PERICENTER":104.0961,"MEAN_ANOMALY":256.0408,"EPHEMERIS_TYPE":0,"NORAD_CAT_ID":62326,"ELEMENT_SET_NO":999,"REV_AT_EPOCH":7621,"BSTAR":0.000044754,"MEAN_MOTION_DOT":3.4e-7,"MEAN_MOTION_DDOT":0},{"OBJECT_NAME":"HULIANWANG DIGUI-05","OBJECT_ID":"2024-240E","EPOCH":"2026-07-14T04:09:08.879616","CLASSIFICATION_TYPE":"U","MEAN_MOTION":13.24411015,"ECCENTRICITY":0.000217,"INCLINATION":86.5062,"RA_OF_ASC_NODE":334.3597,"ARG_OF_PERICENTER":102.0556,"MEAN_ANOMALY":258.0822,"EPHEMERIS_TYPE":0,"NORAD_CAT_ID":62327,"ELEMENT_SET_NO":999,"REV_AT_EPOCH":7621,"BSTAR":0.00003844,"MEAN_MOTION_DOT":3.1e-7,"MEAN_MOTION_DDOT":0},{"OBJECT_NAME":"HULIANWANG DIGUI-06","OBJECT_ID":"2024-240F","EPOCH":"2026-07-14T03:47:23.235648","CLASSIFICATION_TYPE":"U","MEAN_MOTION":13.24408512,"ECCENTRICITY":0.0002085,"INCLINATION":86.4999,"RA_OF_ASC_NODE":334.005,"ARG_OF_PERICENTER":108.5868,"MEAN_ANOMALY":251.5493,"EPHEMERIS_TYPE":0,"NORAD_CAT_ID":62328,"ELEMENT_SET_NO":999,"REV_AT_EPOCH":7621,"BSTAR":-0.000012441,"MEAN_MOTION_DOT":9e-8,"MEAN_MOTION_DDOT":0},{"OBJECT_NAME":"HULIANWANG DIGUI-07","OBJECT_ID":"2024-240G","EPOCH":"2026-07-14T03:36:29.447712","CLASSIFICATION_TYPE":"U","MEAN_MOTION":13.24410991,"ECCENTRICITY":0.0001996,"INCLINATION":86.497,"RA_OF_ASC_NODE":333.8385,"ARG_OF_PERICENTER":106.0986,"MEAN_ANOMALY":254.0368,"EPHEMERIS_TYPE":0,"NORAD_CAT_ID":62329,"ELEMENT_SET_NO":999,"REV_AT_EPOCH":7621,"BSTAR":-0.000029786,"MEAN_MOTION_DOT":2e-8,"MEAN_MOTION_DDOT":0},{"OBJECT_NAME":"HULIANWANG DIGUI-08","OBJECT_ID":"2024-240H","EPOCH":"2026-07-14T03:58:15.965184","CLASSIFICATION_TYPE":"U","MEAN_MOTION":13.24411293,"ECCENTRICITY":0.0002233,"INCLINATION":86.5053,"RA_OF_ASC_NODE":334.3089,"ARG_OF_PERICENTER":102.148,"MEAN_ANOMALY":257.9904,"EPHEMERIS_TYPE":0,"NORAD_CAT_ID":62330,"ELEMENT_SET_NO":999,"REV_AT_EPOCH":7621,"BSTAR":0.000019002,"MEAN_MOTION_DOT":2.3e-7,"MEAN_MOTION_DDOT":0},{"OBJECT_NAME":"HULIANWANG DIGUI-09","OBJECT_ID":"2024-240J","EPOCH":"2026-07-14T03:25:36.883200","CLASSIFICATION_TYPE":"U","MEAN_MOTION":13.24409943,"ECCENTRICITY":0.0001968,"INCLINATION":86.5019,"RA_OF_ASC_NODE":334.1687,"ARG_OF_PERICENTER":104.0193,"MEAN_ANOMALY":256.116,"EPHEMERIS_TYPE":0,"NORAD_CAT_ID":62331,"ELEMENT_SET_NO":999,"REV_AT_EPOCH":7620,"BSTAR":-0.000063617,"MEAN_MOTION_DOT":-1.3e-7,"MEAN_MOTION_DDOT":0},{"OBJECT_NAME":"HULIANWANG DIGUI-10","OBJECT_ID":"2024-240K","EPOCH":"2026-07-14T03:14:44.587392","CLASSIFICATION_TYPE":"U","MEAN_MOTION":13.24410765,"ECCENTRICITY":0.0002042,"INCLINATION":86.505,"RA_OF_ASC_NODE":334.332,"ARG_OF_PERICENTER":106.9943,"MEAN_ANOMALY":253.1415,"EPHEMERIS_TYPE":0,"NORAD_CAT_ID":62332,"ELEMENT_SET_NO":999,"REV_AT_EPOCH":7620,"BSTAR":-0.000039688,"MEAN_MOTION_DOT":-2e-8,"MEAN_MOTION_DDOT":0},{"OBJECT_NAME":"HULIANWANG DIGUI-11","OBJECT_ID":"2025-030A","EPOCH":"2026-07-14T03:35:30.719904","CLASSIFICATION_TYPE":"U","MEAN_MOTION":13.29324394,"ECCENTRICITY":0.000101,"INCLINATION":49.9998,"RA_OF_ASC_NODE":139.1136,"ARG_OF_PERICENTER":269.9619,"MEAN_ANOMALY":90.1137,"EPHEMERIS_TYPE":0,"NORAD_CAT_ID":62971,"ELEMENT_SET_NO":999,"REV_AT_EPOCH":6944,"BSTAR":0.0000095216,"MEAN_MOTION_DOT":-0.0000012,"MEAN_MOTION_DDOT":0}]}
